[{"OBJECT_NAME":"QIANFAN-7","OBJECT_ID":"2024-140G","EPOCH":"2026-03-09T22:22:28.116768","MEAN_MOTION":14.27774901,"ECCENTRICITY":0.00169421,"INCLINATION":88.9727,"RA_OF_ASC_NODE":283.4803,"ARG_OF_PERICENTER":110.6267,"MEAN_ANOMALY":249.6747,"EPHEMERIS_TYPE":0,"CLASSIFICATION_TYPE":"U","NORAD_CAT_ID":60385,"ELEMENT_SET_NO":999,"REV_AT_EPOCH":8283,"BSTAR":0.00011108135,"MEAN_MOTION_DOT":2.89e-6,"MEAN_MOTION_DDOT":0},{"OBJECT_NAME":"CZ-6A DEB","OBJECT_ID":"2022-151RM","EPOCH":"2026-03-08T12:48:29.870784","MEAN_MOTION":14.39277189,"ECCENTRICITY":0.00384408,"INCLINATION":98.7387,"RA_OF_ASC_NODE":105.747,"ARG_OF_PERICENTER":242.3117,"MEAN_ANOMALY":117.4167,"EPHEMERIS_TYPE":0,"CLASSIFICATION_TYPE":"U","NORAD_CAT_ID":54924,"ELEMENT_SET_NO":999,"REV_AT_EPOCH":17286,"BSTAR":0.0019752737,"MEAN_MOTION_DOT":6.142e-5,"MEAN_MOTION_DDOT":0}]
